SL-16 R/B               
1 23405U 94077B   26157.73314538 -.00000297  00000+0 -12734-3 0  9995
2 23405  70.9807 165.1562 0002592 333.8707  26.2285 14.15574110628833
ARIANE 40+ R/B          
1 23561U 95021B   26157.64240740  .00000275  00000+0  10138-3 0  9991
2 23561  98.4412 227.8693 0005806 227.9484 255.2585 14.39827571632043
SL-16 R/B               
1 23705U 95058B   26157.81510434 -.00000153  00000+0 -54011-4 0  9996
2 23705  71.0216 353.1362 0013343 334.4552  25.5910 14.15505363580467
SL-16 R/B               
1 24298U 96051B   26157.76250312  .00000132  00000+0  97896-4 0  9991
2 24298  70.7634 346.7124 0014570 352.8339   7.2570 14.12442526534229
ORBVIEW 2 (SEASTAR)     
1 24883U 97037A   26157.21657493  .00000294  00000+0  11833-3 0  9992
2 24883  98.8681 323.9323 0002840 139.2437 220.8961 14.35547902521179
SL-16 R/B               
1 25400U 98043G   26157.62806239  .00000060  00000+0  44087-4 0  9994
2 25400  98.8359 111.6968 0010825 113.9621 246.2693 14.26066813451667
SL-16 R/B               
1 25407U 98045B   26157.78230934  .00000110  00000+0  79799-4 0  9997
2 25407  71.0120 354.2122 0009537 253.9614 106.0459 14.16204379439710
ISS (ZARYA)             
1 25544U 98067A   26157.86947977  .00009276  00000+0  17237-3 0  9994
2 25544  51.6338 351.1688 0006977 142.0049 218.1433 15.49642340570157
CZ-4B R/B               
1 25732U 99025C   26157.86008348  .00000041  00000+0  40214-4 0  9991
2 25732  98.6488 199.9581 0038257  88.5039  84.6770 14.18281720400802
OKEAN-O                 
1 25860U 99039A   26157.66869947  .00000678  00000+0  95548-4 0  9992
2 25860  97.9319 216.5869 0001858  79.3700 280.7721 14.80454739447553
SL-16 R/B               
1 25861U 99039B   26157.63275003  .00000515  00000+0  71888-4 0  9995
2 25861  97.9842 216.5254 0014087 333.8280  26.2219 14.81834725450032
DELTA 2 R/B             
1 25876U 99041E   26157.69998599  .00000798  00000+0  16610-3 0  9996
2 25876  51.7661 305.6881 0500992 251.0146 103.5876 14.11997056375605
HELIOS 1B               
1 25977U 99064A   26157.62108027  .00001593  00000+0  18005-3 0  9999
2 25977  98.1622  62.4548 0002316 106.6511 253.4959 14.87978310698481
TERRA                   
1 25994U 99068A   26157.94973347  .00000406  00000+0  91562-4 0  9994
2 25994  97.9460 207.9015 0000879 241.8114 174.8380 14.61094985408117
SL-16 R/B               
1 26070U 00006B   26157.60888316 -.00000146  00000+0 -49904-4 0  9994
2 26070  71.0034 270.8671 0015006  39.8042 320.4179 14.15837134361149
TITAN 4B R/B            
1 26474U 00047B   26157.92685292  .00003519  00000+0  21839-3 0  9991
2 26474  67.9877 149.4526 0045511 297.4319  62.2205 15.10137507406389
ENVISAT                 
1 27386U 02009A   26157.48304270  .00000113  00000+0  50473-4 0  9993
2 27386  98.3830 109.0406 0001329  91.0694  27.1263 14.39062351271941
IDEFIX & ARIANE 42P R/B 
1 27422U 02021B   26157.57206554  .00000248  00000+0  11090-3 0  9994
2 27422  98.5941  95.1704 0010642 288.5791  71.4235 14.31077154256732
AQUA                    
1 27424U 02022A   26157.86210311  .00000870  00000+0  18286-3 0  9990
2 27424  98.4272 126.9391 0001506  55.3541  29.1016 14.62142370281762
CZ-4B R/B               
1 27432U 02024C   26157.64092704  .00000050  00000+0  48237-4 0  9991
2 27432  98.8703 210.5289 0051007 129.5946 344.9197 14.14562687241818
MIDORI II (ADEOS-II)    
1 27597U 02056A   26157.63780710  .00000303  00000+0  13688-3 0  9990
2 27597  98.7873 116.8083 0002211  91.6714 268.4721 14.29343868223000
H-2A R/B                
1 27601U 02056E   26157.63582756  .00000231  00000+0  95605-4 0  9996
2 27601  98.3308 114.6950 0068876 256.5066 277.2195 14.33817570226855
CZ-4B R/B               
1 28059U 03049C   26157.71037629  .00000364  00000+0  94928-4 0  9994
2 28059  98.6896 156.1399 0047352 321.2391  38.5411 14.55093185199549
CZ-2C R/B               
1 28222U 04012C   26157.37962722  .00122901  00000+0  75160-3 0  9998
2 28222  97.7089 231.8036 0008825 332.1519  27.9272 15.76941093218193
SL-16 R/B               
1 28353U 04021B   26157.41307141 -.00000166  00000+0 -61348-4 0  9990
2 28353  71.0024  46.3008 0007476 267.0875  92.9392 14.14612822135382
CZ-4B R/B               
1 28415U 04035C   26157.67214399  .00009079  00000+0  30615-3 0  9996
2 28415  97.3371 190.8652 0031236  15.7592 344.4614 15.30469234193519
CZ-2C R/B               
1 28480U 04046B   26157.67398577  .00000094  00000+0  50480-4 0  9992
2 28480  98.1952  67.1111 0138116 251.5842 107.0282 14.27024295121192
ARIANE 5 R/B            
1 28499U 04049H   26157.75674787  .00000858  00000+0  10028-3 0  9995
2 28499  98.2717 329.6076 0085071  62.8759 298.1100 14.85434487159014
CZ-2D R/B               
1 28738U 05024B   26157.56840796  .00065414  00000+0  57933-3 0  9994
2 28738  97.3492 176.4758 0005133  75.7936 284.3895 15.68398870153677
ALOS (DAICHI)           
1 28931U 06002A   26157.47219561  .00001243  00000+0  21551-3 0  9993
2 28931  98.1318 113.0734 0001847  63.0548 297.0846 14.70029043 86527
